{"type": "FeatureCollection", "features": [ {"type": "Feature", "properties": {"norad_id": 37216, "name": "COSMO-SKYMED 4", "group": "resource", "lat": -2.82237973224277, "lon": -15.316696706608408, "alt_km": 626.1043933979672, "timestamp": "2025-12-09T16:56:36.236906+00:00", "meta": {"OBJECT_NAME": "COSMO-SKYMED 4", "OBJECT_ID": "2010-060A", "EPOCH": "2025-12-09T12:52:52.314240", "MEAN_MOTION": 14.82163041, "ECCENTRICITY": 0.0001378, "INCLINATION": 97.8804, "RA_OF_ASC_NODE": 164.9079, "ARG_OF_PERICENTER": 80.3932, "MEAN_ANOMALY": 279.7436, "EPHEMERIS_TYPE": 0, "CLASSIFICATION_TYPE": "U", "NORAD_CAT_ID": 37216, "ELEMENT_SET_NO": 999, "REV_AT_EPOCH": 81647, "BSTAR": 0.00014649, "MEAN_MOTION_DOT": 1.114e-05, "MEAN_MOTION_DDOT": 0}, "tle": {"line1": "1 37216U 10060A   25343.53671660  .00001114  00000+0  14649-3 0  9990", "line2": "2 37216  97.8804 164.9079 0001378  80.3932 279.7436 14.82163041816471"}}, "geometry": {"type": "Point", "coordinates": [-15.316696706608408, -2.82237973224277]}}, {"type": "Feature", "properties": {"norad_id": 37387, "name": "RESOURCESAT-2", "group": "resource", "lat": 80.99893050599486, "lon": -30.304672251268457, "alt_km": 808.7565954161346, "timestamp": "2025-12-09T16:56:36.236917+00:00", "meta": {"OBJECT_NAME": "RESOURCESAT-2", "OBJECT_ID": "2011-015A", "EPOCH": "2025-12-09T11:27:48.934944", "MEAN_MOTION": 14.21595404, "ECCENTRICITY": 0.000658, "INCLINATION": 98.7881, "RA_OF_ASC_NODE": 47.0441, "ARG_OF_PERICENTER": 51.05, "MEAN_ANOMALY": 309.1263, "EPHEMERIS_TYPE": 0, "CLASSIFICATION_TYPE": "U", "NORAD_CAT_ID": 37387, "ELEMENT_SET_NO": 999, "REV_AT_EPOCH": 75922, "BSTAR": 0.00015126, "MEAN_MOTION_DOT": 2.87e-06, "MEAN_MOTION_DDOT": 0}, "tle": {"line1": "1 37387U 11015A   25343.47764971  .00000287  00000+0  15126-3 0  9992", "line2": "2 37387  98.7881  47.0441 0006580  51.0500 309.1263 14.21595404759225"}}, "geometry": {"type": "Point", "coordinates": [-30.304672251268457, 80.99893050599486]}}, {"type": "Feature", "properties": {"norad_id": 37781, "name": "HAIYANG-2A", "group": "resource", "lat": -60.82800753922313, "lon": 147.54564399038696, "alt_km": 976.2343976304028, "timestamp": "2025-12-09T16:56:36.236928+00:00", "meta": {"OBJECT_NAME": "HAIYANG-2A", "OBJECT_ID": "2011-043A", "EPOCH": "2025-12-09T12:17:22.079904", "MEAN_MOTION": 13.78834479, "ECCENTRICITY": 0.0001667, "INCLINATION": 99.3374, "RA_OF_ASC_NODE": 344.4958, "ARG_OF_PERICENTER": 86.5473, "MEAN_ANOMALY": 273.5869, "EPHEMERIS_TYPE": 0, "CLASSIFICATION_TYPE": "U", "NORAD_CAT_ID": 37781, "ELEMENT_SET_NO": 999, "REV_AT_EPOCH": 72054, "BSTAR": -4.1395e-06, "MEAN_MOTION_DOT": -4.8e-07, "MEAN_MOTION_DDOT": 0}, "tle": {"line1": "1 37781U 11043A   25343.51206111 -.00000048  00000+0 -41395-5 0  9999", "line2": "2 37781  99.3374 344.4958 0001667  86.5473 273.5869 13.78834479720545"}}, "geometry": {"type": "Point", "coordinates": [147.54564399038696, -60.82800753922313]}}, {"type": "Feature", "properties": {"norad_id": 37791, "name": "RASAT", "group": "resource", "lat": 70.48758387019322, "lon": -83.40369352479603, "alt_km": 648.0866082646917, "timestamp": "2025-12-09T16:56:36.236939+00:00", "meta": {"OBJECT_NAME": "RASAT", "OBJECT_ID": "2011-044D", "EPOCH": "2025-12-09T13:36:59.369184", "MEAN_MOTION": 14.67902494, "ECCENTRICITY": 0.0021948, "INCLINATION": 98.0653, "RA_OF_ASC_NODE": 72.8723, "ARG_OF_PERICENTER": 74.4079, "MEAN_ANOMALY": 21.1465, "EPHEMERIS_TYPE": 0, "CLASSIFICATION_TYPE": "U", "NORAD_CAT_ID": 37791, "ELEMENT_SET_NO": 999, "REV_AT_EPOCH": 76536, "BSTAR": 0.00018222, "MEAN_MOTION_DOT": 9.97e-06, "MEAN_MOTION_DDOT": 0}, "tle": {"line1": "1 37791U 11044D   25343.56735381  .00000997  00000+0  18222-3 0  9994", "line2": "2 37791  98.0653  72.8723 0021948  74.4079  21.1465 14.67902494765366"}}, "geometry": {"type": "Point", "coordinates": [-83.40369352479603, 70.48758387019322]}}, {"type": "Feature", "properties": {"norad_id": 37841, "name": "SRMSAT", "group": "resource", "lat": 19.23293891041842, "lon": -127.5696990478515, "alt_km": 857.5176717986442, "timestamp": "2025-12-09T16:56:36.236950+00:00", "meta": {"OBJECT_NAME": "SRMSAT", "OBJECT_ID": "2011-058D", "EPOCH": "2025-12-09T11:34:01.964352", "MEAN_MOTION": 14.11509916, "ECCENTRICITY": 0.0011707, "INCLINATION": 19.9703, "RA_OF_ASC_NODE": 127.6683, "ARG_OF_PERICENTER": 277.3099, "MEAN_ANOMALY": 127.1435, "EPHEMERIS_TYPE": 0, "CLASSIFICATION_TYPE": "U", "NORAD_CAT_ID": 37841, "ELEMENT_SET_NO": 999, "REV_AT_EPOCH": 73098, "BSTAR": 0.00015528, "MEAN_MOTION_DOT": 5.51e-06, "MEAN_MOTION_DDOT": 0}, "tle": {"line1": "1 37841U 11058D   25343.48196718  .00000551  00000+0  15528-3 0  9993", "line2": "2 37841  19.9703 127.6683 0011707 277.3099 127.1435 14.11509916730987"}}, "geometry": {"type": "Point", "coordinates": [-127.5696990478515, 19.23293891041842]}}, {"type": "Feature", "properties": {"norad_id": 38012, "name": "PLEIADES 1A", "group": "resource", "lat": 4.52316532641801, "lon": 55.86913339993083, "alt_km": 699.8554904376897, "timestamp": "2025-12-09T16:56:36.236960+00:00", "meta": {"OBJECT_NAME": "PLEIADES 1A", "OBJECT_ID": "2011-076F", "EPOCH": "2025-12-09T12:30:48.656736", "MEAN_MOTION": 14.58556827, "ECCENTRICITY": 0.0001354, "INCLINATION": 98.1824, "RA_OF_ASC_NODE": 56.3396, "ARG_OF_PERICENTER": 73.4891, "MEAN_ANOMALY": 42.6026, "EPHEMERIS_TYPE": 0, "CLASSIFICATION_TYPE": "U", "NORAD_CAT_ID": 38012, "ELEMENT_SET_NO": 999, "REV_AT_EPOCH": 74434, "BSTAR": 0.00016808, "MEAN_MOTION_DOT": 7.36e-06, "MEAN_MOTION_DDOT": 0}, "tle": {"line1": "1 38012U 11076F   25343.52139649  .00000736  00000+0  16808-3 0  9996", "line2": "2 38012  98.1824  56.3396 0001354  73.4891  42.6026 14.58556827744348"}}, "geometry": {"type": "Point", "coordinates": [55.86913339993083, 4.52316532641801]}}, {"type": "Feature", "properties": {"norad_id": 38038, "name": "ZIYUAN 1-02C (ZY 1-02C)", "group": "resource", "lat": 42.78982739990061, "lon": -122.33097030583106, "alt_km": 756.6043753723716, "timestamp": "2025-12-09T16:56:36.236971+00:00", "meta": {"OBJECT_NAME": "ZIYUAN 1-02C (ZY 1-02C)", "OBJECT_ID": "2011-079A", "EPOCH": "2025-12-09T13:34:44.357088", "MEAN_MOTION": 14.38007, "ECCENTRICITY": 0.0007004, "INCLINATION": 98.4333, "RA_OF_ASC_NODE": 49.638, "ARG_OF_PERICENTER": 146.7513, "MEAN_ANOMALY": 344.5211, "EPHEMERIS_TYPE": 0, "CLASSIFICATION_TYPE": "U", "NORAD_CAT_ID": 38038, "ELEMENT_SET_NO": 999, "REV_AT_EPOCH": 73195, "BSTAR": 0.00030299, "MEAN_MOTION_DOT": 8.74e-06, "MEAN_MOTION_DDOT": 0}, "tle": {"line1": "1 38038U 11079A   25343.56579117  .00000874  00000+0  30299-3 0  9992", "line2": "2 38038  98.4333  49.6380 0007004 146.7513 344.5211 14.38007000731950"}}, "geometry": {"type": "Point", "coordinates": [-122.33097030583106, 42.78982739990061]}}, {"type": "Feature", "properties": {"norad_id": 38046, "name": "ZIYUAN 3-1 (ZY 3-1)", "group": "resource", "lat": -47.87011204839943, "lon": 58.0596819618808, "alt_km": 370.9102769168312, "timestamp": "2025-12-09T16:56:36.236982+00:00", "meta": {"OBJECT_NAME": "ZIYUAN 3-1 (ZY 3-1)", "OBJECT_ID": "2012-001A", "EPOCH": "2025-12-09T12:33:15.166944", "MEAN_MOTION": 15.67924855, "ECCENTRICITY": 0.0001959, "INCLINATION": 97.1751, "RA_OF_ASC_NODE": 49.8666, "ARG_OF_PERICENTER": 8.1756, "MEAN_ANOMALY": 351.9537, "EPHEMERIS_TYPE": 0, "CLASSIFICATION_TYPE": "U", "NORAD_CAT_ID": 38046, "ELEMENT_SET_NO": 999, "REV_AT_EPOCH": 77446, "BSTAR": 0.00081699, "MEAN_MOTION_DOT": 0.00090761, "MEAN_MOTION_DDOT": 0}, "tle": {"line1": "1 38046U 12001A   25343.52309221  .00090761  00000+0  81699-3 0  9994", "line2": "2 38046  97.1751  49.8666 0001959   8.1756 351.9537 15.67924855774466"}}, "geometry": {"type": "Point", "coordinates": [58.0596819618808, -47.87011204839943]}}, {"type": "Feature", "properties": {"norad_id": 38338, "name": "ARIRANG-3 (KOMPSAT-3)", "group": "resource", "lat": -47.08671500823837, "lon": 109.20329765395877, "alt_km": 696.5063428107969, "timestamp": "2025-12-09T16:56:36.236993+00:00", "meta": {"OBJECT_NAME": "ARIRANG-3 (KOMPSAT-3)", "OBJECT_ID": "2012-025B", "EPOCH": "2025-12-09T12:37:08.078880", "MEAN_MOTION": 14.61706536, "ECCENTRICITY": 0.0005586, "INCLINATION": 98.3317, "RA_OF_ASC_NODE": 298.0911, "ARG_OF_PERICENTER": 349.4155, "MEAN_ANOMALY": 10.6927, "EPHEMERIS_TYPE": 0, "CLASSIFICATION_TYPE": "U", "NORAD_CAT_ID": 38338, "ELEMENT_SET_NO": 999, "REV_AT_EPOCH": 72363, "BSTAR": 0.00023413, "MEAN_MOTION_DOT": 1.118e-05, "MEAN_MOTION_DDOT": 0}, "tle": {"line1": "1 38338U 12025B   25343.52578795  .00001118  00000+0  23413-3 0  9996", "line2": "2 38338  98.3317 298.0911 0005586 349.4155  10.6927 14.61706536723638"}}, "geometry": {"type": "Point", "coordinates": [109.20329765395877, -47.08671500823837]}}, {"type": "Feature", "properties": {"norad_id": 38709, "name": "EXACTVIEW-1 (ADS-1B)", "group": "resource", "lat": -80.42522621554323, "lon": -157.30375540345884, "alt_km": 816.9845245559145, "timestamp": "2025-12-09T16:56:36.237004+00:00", "meta": {"OBJECT_NAME": "EXACTVIEW-1 (ADS-1B)", "OBJECT_ID": "2012-039C", "EPOCH": "2025-12-09T07:16:08.074272", "MEAN_MOTION": 14.24906039, "ECCENTRICITY": 0.0010855, "INCLINATION": 98.9635, "RA_OF_ASC_NODE": 91.6209, "ARG_OF_PERICENTER": 4.164, "MEAN_ANOMALY": 355.9626, "EPHEMERIS_TYPE": 0, "CLASSIFICATION_TYPE": "U", "NORAD_CAT_ID": 38709, "ELEMENT_SET_NO": 999, "REV_AT_EPOCH": 69566, "BSTAR": 0.00016304, "MEAN_MOTION_DOT": 3.35e-06, "MEAN_MOTION_DDOT": 0}, "tle": {"line1": "1 38709U 12039C   25343.30287123  .00000335  00000+0  16304-3 0  9992", "line2": "2 38709  98.9635  91.6209 0010855   4.1640 355.9626 14.24906039695666"}}, "geometry": {"type": "Point", "coordinates": [-157.30375540345884, -80.42522621554323]}}]}